CCSDS_OMM_VERS = 2.0
CREATION_DATE  = 
ORIGINATOR     = 

OBJECT_NAME    = SL-14 R/B
OBJECT_ID      = 1986-046B
CENTER_NAME    = EARTH
REF_FRAME      = TEME
TIME_SYSTEM    = UTC
MEAN_ELEMENT_THEORY = SGP/SGP4

EPOCH          = 2026-02-08T04:06:02.898432
MEAN_MOTION    = 14.85561664
ECCENTRICITY   = .0022255
INCLINATION    = 82.4816
RA_OF_ASC_NODE = 108.0774
ARG_OF_PERICENTER = 328.9085
MEAN_ANOMALY   = 31.0812

EPHEMERIS_TYPE = 0
CLASSIFICATION_TYPE = U
NORAD_CAT_ID   = 16792
ELEMENT_SET_NO = 999
REV_AT_EPOCH   = 12202
BSTAR          = .58272E-4
MEAN_MOTION_DOT = .53E-5
MEAN_MOTION_DDOT = 0

CCSDS_OMM_VERS = 2.0
CREATION_DATE  = 
ORIGINATOR     = 

OBJECT_NAME    = SL-14 R/B
OBJECT_ID      = 1986-055B
CENTER_NAME    = EARTH
REF_FRAME      = TEME
TIME_SYSTEM    = UTC
MEAN_ELEMENT_THEORY = SGP/SGP4

EPOCH          = 2026-02-07T20:11:50.282016
MEAN_MOTION    = 14.85611342
ECCENTRICITY   = .00203282
INCLINATION    = 82.5233
RA_OF_ASC_NODE = 154.7196
ARG_OF_PERICENTER = 72.5398
MEAN_ANOMALY   = 46.9154

EPHEMERIS_TYPE = 0
CLASSIFICATION_TYPE = U
NORAD_CAT_ID   = 16882
ELEMENT_SET_NO = 999
REV_AT_EPOCH   = 11493
BSTAR          = .82475252E-4
MEAN_MOTION_DOT = .741E-5
MEAN_MOTION_DDOT = 0

CCSDS_OMM_VERS = 2.0
CREATION_DATE  = 
ORIGINATOR     = 

OBJECT_NAME    = AJISAI (EGS)
OBJECT_ID      = 1986-061A
CENTER_NAME    = EARTH
REF_FRAME      = TEME
TIME_SYSTEM    = UTC
MEAN_ELEMENT_THEORY = SGP/SGP4

EPOCH          = 2026-02-08T03:47:52.507104
MEAN_MOTION    = 12.44515326
ECCENTRICITY   = .0011241
INCLINATION    = 50.0072
RA_OF_ASC_NODE = 184.1563
ARG_OF_PERICENTER = 210.9632
MEAN_ANOMALY   = 199.1361

EPHEMERIS_TYPE = 0
CLASSIFICATION_TYPE = U
NORAD_CAT_ID   = 16908
ELEMENT_SET_NO = 999
REV_AT_EPOCH   = 46432
BSTAR          = .76675E-4
MEAN_MOTION_DOT = -.86E-6
MEAN_MOTION_DDOT = 0

CCSDS_OMM_VERS = 2.0
CREATION_DATE  = 
ORIGINATOR     = 

OBJECT_NAME    = COSMOS 1812
OBJECT_ID      = 1987-003A
CENTER_NAME    = EARTH
REF_FRAME      = TEME
TIME_SYSTEM    = UTC
MEAN_ELEMENT_THEORY = SGP/SGP4

EPOCH          = 2026-02-08T02:41:51.703872
MEAN_MOTION    = 15.94753385
ECCENTRICITY   = .0001075
INCLINATION    = 82.4780
RA_OF_ASC_NODE = 229.1570
ARG_OF_PERICENTER = 326.8763
MEAN_ANOMALY   = 33.2444

EPHEMERIS_TYPE = 0
CLASSIFICATION_TYPE = U
NORAD_CAT_ID   = 17295
ELEMENT_SET_NO = 999
REV_AT_EPOCH   = 13973
BSTAR          = .6981E-3
MEAN_MOTION_DOT = .265516E-2
MEAN_MOTION_DDOT = .25773E-4

CCSDS_OMM_VERS = 2.0
CREATION_DATE  = 
ORIGINATOR     = 

OBJECT_NAME    = SL-14 R/B
OBJECT_ID      = 1987-024B
CENTER_NAME    = EARTH
REF_FRAME      = TEME
TIME_SYSTEM    = UTC
MEAN_ELEMENT_THEORY = SGP/SGP4

EPOCH          = 2026-02-07T16:13:59.486016
MEAN_MOTION    = 14.86103343
ECCENTRICITY   = .0018278
INCLINATION    = 82.5293
RA_OF_ASC_NODE = 120.9719
ARG_OF_PERICENTER = 5.1262
MEAN_ANOMALY   = 355.0138

EPHEMERIS_TYPE = 0
CLASSIFICATION_TYPE = U
NORAD_CAT_ID   = 17567
ELEMENT_SET_NO = 999
REV_AT_EPOCH   = 8367
BSTAR          = .67366814E-4
MEAN_MOTION_DOT = .616E-5
MEAN_MOTION_DDOT = 0

CCSDS_OMM_VERS = 2.0
CREATION_DATE  = 
ORIGINATOR     = 

OBJECT_NAME    = COSMOS 1833
OBJECT_ID      = 1987-027A
CENTER_NAME    = EARTH
REF_FRAME      = TEME
TIME_SYSTEM    = UTC
MEAN_ELEMENT_THEORY = SGP/SGP4

EPOCH          = 2026-02-08T03:05:17.863008
MEAN_MOTION    = 14.13056364
ECCENTRICITY   = .0024885
INCLINATION    = 70.9213
RA_OF_ASC_NODE = 28.1449
ARG_OF_PERICENTER = 254.1113
MEAN_ANOMALY   = 105.7266

EPHEMERIS_TYPE = 0
CLASSIFICATION_TYPE = U
NORAD_CAT_ID   = 17589
ELEMENT_SET_NO = 999
REV_AT_EPOCH   = 614
BSTAR          = .5369E-4
MEAN_MOTION_DOT = .52E-6
MEAN_MOTION_DDOT = 0

CCSDS_OMM_VERS = 2.0
CREATION_DATE  = 
ORIGINATOR     = 

OBJECT_NAME    = SL-16 R/B
OBJECT_ID      = 1987-027B
CENTER_NAME    = EARTH
REF_FRAME      = TEME
TIME_SYSTEM    = UTC
MEAN_ELEMENT_THEORY = SGP/SGP4

EPOCH          = 2026-02-08T04:30:38.874816
MEAN_MOTION    = 14.17163501
ECCENTRICITY   = .000512
INCLINATION    = 71.0049
RA_OF_ASC_NODE = 338.6606
ARG_OF_PERICENTER = 194.0834
MEAN_ANOMALY   = 166.0148

EPHEMERIS_TYPE = 0
CLASSIFICATION_TYPE = U
NORAD_CAT_ID   = 17590
ELEMENT_SET_NO = 999
REV_AT_EPOCH   = 1116
BSTAR          = -.6645E-4
MEAN_MOTION_DOT = -.182E-5
MEAN_MOTION_DDOT = 0

CCSDS_OMM_VERS = 2.0
CREATION_DATE  = 
ORIGINATOR     = 

OBJECT_NAME    = SL-14 R/B
OBJECT_ID      = 1987-038B
CENTER_NAME    = EARTH
REF_FRAME      = TEME
TIME_SYSTEM    = UTC
MEAN_ELEMENT_THEORY = SGP/SGP4

EPOCH          = 2026-02-07T20:35:29.430528
MEAN_MOTION    = 14.85339830
ECCENTRICITY   = .00176903
INCLINATION    = 82.5042
RA_OF_ASC_NODE = 324.9033
ARG_OF_PERICENTER = 263.0354
MEAN_ANOMALY   = 96.8850

EPHEMERIS_TYPE = 0
CLASSIFICATION_TYPE = U
NORAD_CAT_ID   = 17912
ELEMENT_SET_NO = 999
REV_AT_EPOCH   = 7480
BSTAR          = .79158556E-4
MEAN_MOTION_DOT = .706E-5
MEAN_MOTION_DDOT = 0

CCSDS_OMM_VERS = 2.0
CREATION_DATE  = 
ORIGINATOR     = 

OBJECT_NAME    = COSMOS 1844
OBJECT_ID      = 1987-041A
CENTER_NAME    = EARTH
REF_FRAME      = TEME
TIME_SYSTEM    = UTC
MEAN_ELEMENT_THEORY = SGP/SGP4

EPOCH          = 2026-02-08T04:40:59.339136
MEAN_MOTION    = 14.14540108
ECCENTRICITY   = .0028839
INCLINATION    = 70.8981
RA_OF_ASC_NODE = 96.3909
ARG_OF_PERICENTER = 65.2553
MEAN_ANOMALY   = 295.1565

EPHEMERIS_TYPE = 0
CLASSIFICATION_TYPE = U
NORAD_CAT_ID   = 17973
ELEMENT_SET_NO = 999
REV_AT_EPOCH   = 99941
BSTAR          = .22455E-3
MEAN_MOTION_DOT = .385E-5
MEAN_MOTION_DDOT = 0

CCSDS_OMM_VERS = 2.0
CREATION_DATE  = 
ORIGINATOR     = 

OBJECT_NAME    = SL-14 R/B
OBJECT_ID      = 1987-055B
CENTER_NAME    = EARTH
REF_FRAME      = TEME
TIME_SYSTEM    = UTC
MEAN_ELEMENT_THEORY = SGP/SGP4

EPOCH          = 2026-02-08T01:00:43.695360
MEAN_MOTION    = 14.85592200
ECCENTRICITY   = .0022192
INCLINATION    = 82.4995
RA_OF_ASC_NODE = 16.9692
ARG_OF_PERICENTER = 110.0636
MEAN_ANOMALY   = 250.2972

EPHEMERIS_TYPE = 0
CLASSIFICATION_TYPE = U
NORAD_CAT_ID   = 18153
ELEMENT_SET_NO = 999
REV_AT_EPOCH   = 6553
BSTAR          = .72816E-4
MEAN_MOTION_DOT = .657E-5
MEAN_MOTION_DDOT = 0

CCSDS_OMM_VERS = 2.0
CREATION_DATE  = 
ORIGINATOR     = 

OBJECT_NAME    = COSMOS 1867
OBJECT_ID      = 1987-060A
CENTER_NAME    = EARTH
REF_FRAME      = TEME
TIME_SYSTEM    = UTC
MEAN_ELEMENT_THEORY = SGP/SGP4

EPOCH          = 2026-02-08T02:23:05.280288
MEAN_MOTION    = 14.31498149
ECCENTRICITY   = .0014097
INCLINATION    = 65.0110
RA_OF_ASC_NODE = 29.5694
ARG_OF_PERICENTER = 276.4205
MEAN_ANOMALY   = 83.5274

EPHEMERIS_TYPE = 0
CLASSIFICATION_TYPE = U
NORAD_CAT_ID   = 18187
ELEMENT_SET_NO = 999
REV_AT_EPOCH   = 1570
BSTAR          = .35557E-4
MEAN_MOTION_DOT = -.6E-7
MEAN_MOTION_DDOT = 0

CCSDS_OMM_VERS = 2.0
CREATION_DATE  = 
ORIGINATOR     = 

OBJECT_NAME    = SL-14 R/B
OBJECT_ID      = 1988-001B
CENTER_NAME    = EARTH
REF_FRAME      = TEME
TIME_SYSTEM    = UTC
MEAN_ELEMENT_THEORY = SGP/SGP4

EPOCH          = 2026-02-07T23:14:01.891680
MEAN_MOTION    = 14.85491904
ECCENTRICITY   = .0017547
INCLINATION    = 82.5106
RA_OF_ASC_NODE = 223.3157
ARG_OF_PERICENTER = 341.3668
MEAN_ANOMALY   = 18.6903

EPHEMERIS_TYPE = 0
CLASSIFICATION_TYPE = U
NORAD_CAT_ID   = 18749
ELEMENT_SET_NO = 999
REV_AT_EPOCH   = 3761
BSTAR          = .64932E-4
MEAN_MOTION_DOT = .586E-5
MEAN_MOTION_DDOT = 0

