SL-14 R/B               
1 16792U 86046B   26039.17086688  .00000530  00000+0  58272-4 0  9998
2 16792  82.4816 108.0774 0022255 328.9085  31.0812 14.85561664122022
SL-14 R/B               
1 16882U 86055B   26038.84155419  .00000741  00000+0  82475-4 0  9996
2 16882  82.5233 154.7196 0020328  72.5398  46.9154 14.85611342114934
AJISAI (EGS)            
1 16908U 86061A   26039.15824661 -.00000086  00000+0  76675-4 0  9997
2 16908  50.0072 184.1563 0011241 210.9632 199.1361 12.44515326464322
COSMOS 1812             
1 17295U 87003A   26039.11240398  .00265516  25773-4  69810-3 0  9990
2 17295  82.4780 229.1570 0001075 326.8763  33.2444 15.94753385139732
SL-14 R/B               
1 17567U 87024B   26038.67638294  .00000616  00000+0  67367-4 0  9996
2 17567  82.5293 120.9719 0018278   5.1262 355.0138 14.86103343 83670
COSMOS 1833             
1 17589U 87027A   26039.12867897  .00000052  00000+0  53690-4 0  9995
2 17589  70.9213  28.1449 0024885 254.1113 105.7266 14.13056364  6147
SL-16 R/B               
1 17590U 87027B   26039.18794994 -.00000182  00000+0 -66450-4 0  9994
2 17590  71.0049 338.6606 0005120 194.0834 166.0148 14.17163501 11168
SL-14 R/B               
1 17912U 87038B   26038.85797952  .00000706  00000+0  79159-4 0  9994
2 17912  82.5042 324.9033 0017690 263.0354  96.8850 14.85339830 74802
COSMOS 1844             
1 17973U 87041A   26039.19513124  .00000385  00000+0  22455-3 0  9999
2 17973  70.8981  96.3909 0028839  65.2553 295.1565 14.14540108999417
SL-14 R/B               
1 18153U 87055B   26039.04217240  .00000657  00000+0  72816-4 0  9998
2 18153  82.4995  16.9692 0022192 110.0636 250.2972 14.85592200 65535
COSMOS 1867             
1 18187U 87060A   26039.09936667 -.00000006  00000+0  35557-4 0  9997
2 18187  65.0110  29.5694 0014097 276.4205  83.5274 14.31498149 15708
SL-14 R/B               
1 18749U 88001B   26038.96807745  .00000586  00000+0  64932-4 0  9997
2 18749  82.5106 223.3157 0017547 341.3668  18.6903 14.85491904 37610
